IRIDIUM 106             
1 41917U 17003A   24274.03932969  .00000108  00000+0  31384-4 0  9994
2 41917  86.4026 349.7815 0002334 104.2820 255.8635 14.34215701403601
IRIDIUM 103             
1 41918U 17003B   24274.58478161  .00000869  00000+0  30319-3 0  9994
2 41918  86.4024 349.4552 0001706 106.5852 253.5531 14.34223518403714
IRIDIUM 109             
1 41919U 17003C   24274.24229400  .00000167  00000+0  52660-4 0  9993
2 41919  86.4024 349.6470 0001888  86.3200 273.8211 14.34217775403627
IRIDIUM 102             
1 41920U 17003D   24274.35011717  .00000711  00000+0  24677-3 0  9998
2 41920  86.4022 349.5389 0002256  95.1631 264.9822 14.34219442403724
IRIDIUM 105             
1 41921U 17003E   24274.46039394  .00000170  00000+0  53623-4 0  9995
2 41921  86.3969 317.9374 0002278  97.2452 262.9003 14.34214979405591
IRIDIUM 104             
1 41922U 17003F   24274.36280257  .00000550  00000+0  18945-3 0  9990
2 41922  86.4022 349.5670 0001770  86.0609 274.0789 14.34218705403717
IRIDIUM 114             
1 41923U 17003G   24274.57844868  .00000447  00000+0  15271-3 0  9992
2 41923  86.4024 349.4624 0002222 101.5376 258.6069 14.34216341403741
IRIDIUM 108             
1 41924U 17003H   24274.67650658  .00000612  00000+0  21146-3 0  9998
2 41924  86.3966 317.7648 0002397  96.7326 263.4142 14.34215956405618
